{
  "norad_id": 67052,
  "name": "STARLINK-35720",
  "history": [
    {
      "epoch": "2026-03-28T20:52:03.780480",
      "apogee_km": 484.1860873551532,
      "perigee_km": 481.7857921059176,
      "latitude_deg": 41.11969723368171,
      "longitude_deg": -111.3291328002233,
      "semi_major_axis_km": 6861.122939730535,
      "eccentricity": 0.00017492,
      "inclination_deg": 43.0044,
      "raan_deg": 289.6573,
      "arg_perigee_deg": 264.2335,
      "mean_anomaly_deg": 95.8318,
      "mean_motion_rev_day": 15.27601092
    }
  ]
}