{"fetched_at":"2026-03-29T16:36:15Z","count":15609,"tles":[{"name":"STARLINK-35720","line1":"1 67052U 25294Y   26087.86948820  .00030081  00000+0  10975-2 0  9995","line2":"2 67052  43.0044 289.6573 0001749 264.2335  95.8318 15.27601092 17738","category":"Starlink"}]}